#dP2023  7 30  6  0  0.00000000      96 __u+U ITR00 EXT  IAC
## 2273  21600.00000000   900.00000000 60155 0.2500000000000
+  119   C06C07C08C09C10C11C12C13C14C16C19C20C21C22C23C24C25
+        C26C27C28C29C30C32C33C34C35C36C37C38C39C40C41C42C43
+        C44C45C46E02E03E04E05E07E08E09E10E11E12E13E14E15E18
+        E19E21E24E25E26E27E30E31E33E34E36G01G02G03G04G05G06
+        G07G08G09G10G11G12G13G14G15G16G17G18G19G20G21G22G23
+        G24G25G26G27G28G29G30G31G32J02J03J04R01R02R03R04R05
+        R07R08R09R11R12R13R14R15R16R17R18R19R20R21R22R24R25
++        10 10  8  9 10  9  9  8 10 10  9 10  9  8  7  9  8
++         8  8  7  8  8 10 10  9  8  9  9  9  9 11  9  8  7
++         7  7  7  8  8  9  7 11  9  7  8  8  8  8  8  8  7
++        12  8  8  7  7  7  8  7  7  7  7  8  7  8  8  8  7
++         7  8  7  8  7  9  8  7  7  7  8  7  8  8  7  8  7
++         7  8  8  8  7  8  7  8  9 10  9 10  8  8 10  8  8
++         8  7  8  8  9  8  7  8  8  8  8  7  9  8  9  8  9
%c M  cc GPS ccc cccc cccc cccc cccc ccccc ccccc ccccc ccccc
%c cc cc ccc ccc cccc cccc cccc cccc ccccc ccccc ccccc ccccc
%f  0.0000000  0.000000000  0.00000000000  0.000000000000000
%f  0.0000000  0.000000000  0.00000000000  0.000000000000000
%i    0    0    0    0      0      0      0      0         0
%i    0    0    0    0      0      0      0      0         0
/* IAC                                ULTRA-RAPID PREDICTION
/* S/V CLOCKS ARE ALIGNED TO GNSS TIME                      
/* G:C1WC2W R:C1PC2P E:C1XC5X C:C2IC6I J:C1CC2S             
/* PCV:IGS20_2247 OL/AL:FES2004  NONE     YN ORB:CoN CLK:CoN
*  2023 07 30  9 45  0.00000000
PC06  -5033.066941  38236.626105  17398.377065    738.323081
PC07  -9058.705185  25982.979882 -31871.753579    147.871823
PC08 -19381.935112  32566.169979  18225.361282    409.537385
PC09    164.574644  41623.262875   8832.556652    354.338519
PC10  -2029.155517  27154.035893 -31834.410419   -129.929674
PC11  17973.846770   8600.471319  19588.454837    752.919582
PC12  14112.523881  23646.640429   4498.748678    829.243065
PC13 -12590.416978  32810.172637  23211.374864    325.064569
PC14  27686.898676   2909.118267   1392.347802    142.330715
PC16  -5854.876366  37376.451756  19172.432412    -14.602890
PC19 -26553.912281   3480.693846   7910.927392   -949.482438
PC20 -25297.889382  -7841.757574  -8838.928040    398.901608
PC21   8505.755201  15393.133957  21669.705082   -941.807014
PC22 -12624.078973  13377.458513  20988.434859   -373.601902
PC23  15507.861566 -23200.127855    293.932788   -923.716006
PC24  13662.912225   8974.260524 -22620.924179    228.987941
PC25  20416.475013 -11415.082728 -15238.789400    178.740381
PC26     76.281331  22246.513631 -16837.857113   -156.027761
PC27  -9357.597920 -26010.741576   3783.053346    177.068162
PC28   3774.817745 -21124.296348  17845.626868    132.206348
PC29 -16268.018212   2824.596553 -22505.573567    154.124190
PC30 -18512.312556 -16797.233507 -12399.651763     -2.827886
PC32  -8560.964023 -15340.674526 -21676.228637   -535.322272
PC33  26547.181215  -3579.429792  -7787.934440   -924.915032
PC34  18759.353846  15673.948401  13458.684746    226.041030
PC35  -3322.428872  21074.093315 -18020.033265    578.165575
PC36 -20642.971101  10160.405976  15816.572057   -302.454523
PC37   1290.913035 -22713.187767  16195.064997   -799.676187
PC38 -23696.828126  33258.728599  10131.521217     94.897918
PC39  -8139.029342  33550.306404  24408.756784     -4.068069
PC40 -14340.454018  19302.826668 -34642.432181    -31.157034
PC41  13289.243140 -13197.565414 -20635.890161   -895.088453
PC42  24499.258906   8655.765752  10179.701701   -594.579779
PC43  16726.648726  -1888.603174  22247.051523     33.011856
PC44  10154.525174  25700.903734  -3999.094406    184.477295
PC45 -15249.762184  23343.699914   -781.708654     -7.996499
PC46 -14398.633080  -7619.739651  22660.673788    -72.734311
PE02 -18583.876267  18374.218399 -13885.674459     52.719671
PE03  -7200.598062  15643.748555  24071.514267    -41.011086
PE04 -12318.123934 -22239.431690 -15157.178697   -178.091610
PE05 -22701.419510   -160.547418  19001.050605      4.332912
PE07  24755.554503  16020.441577  -2504.362005    -63.685430
PE08  12017.370463  22137.639440  15535.839579   -122.417732
PE09 -24737.768104 -16098.155324   2370.501011   -102.593478
PE10  -8435.826953 -22863.384902 -16822.597826   -552.322887
PE11 -13438.772419 -13161.458486 -22870.207325   2609.402777
PE12  -2575.750717 -28162.828793  -8734.022587   -638.232336
PE13  13100.886642  13913.148175  22599.563504    -19.369352
PE14 -27358.243773  -5282.984173 -16700.496622    296.841255
PE15   2340.033131  28293.906915   8372.925506    -41.121062
PE18  18649.607341    619.128844  14330.044715    355.109560
PE19   9658.619468 -13809.406535 -24327.549763  -1962.578432
PE21  27825.062913  -9488.135606  -3437.874081   -543.704193
PE24 -20969.800461  -6021.639267  19989.457835   -237.812404
PE25 -27866.341226   9234.363995   3800.503750   -609.080355
PE26  16135.440278  -9208.420691  23041.610648    177.992714
PE27  21456.945783   5423.361337 -19650.200848   -111.942056
PE30   1964.953213  17204.632601 -24008.397705   -377.150291
PE31  -2521.209131 -16986.064194  24122.596411     -1.525215
PE33   9966.192450 -25563.768977  11116.224764     -2.076062
PE34  -9601.491161  25929.184068 -10560.739975    -58.824732
PE36 -16051.995532   8409.706250 -23410.153058    -93.536436
PG01  13400.426567 -15272.279110  16572.495088    170.641494
PG02  14771.162309  -8820.804940  20694.960990   -570.879265
PG03  22482.753276 -13008.148481  -5383.986899   -210.487032
PG04  13870.371143  -7708.027082 -21305.204605    110.589036
PG05 -24349.924283   3348.381443 -10386.136936   -136.861825
PG06  -6189.552447 -21547.568174 -14110.477771    572.588247
PG07   5729.056017 -25429.671526  -3007.702739    110.304073
PG08  21451.286900   2026.359431  15711.958346   -134.756060
PG09   4439.925877 -15369.992393 -21270.708106    -99.502814
PG10   4499.460666  14218.299839  22145.574232    -47.226059
PG11 -13452.421225  -8319.804852 -21333.006293   -298.235306
PG12 -24604.828529   9689.771704  -2236.664111   -406.869249
PG13 -21434.948750 -11317.716273  10916.798525    553.726989
PG14   -661.839202 -15992.511057  21194.504816    138.361130
PG15 -21294.478208   1092.497438  15521.076482     62.837403
PG16  23098.289158   2719.938476 -13536.411731   -474.652760
PG17 -10439.969237 -20917.539627  12931.213321    721.919064
PG18  -4690.135214  26033.039455   -891.464202   -364.383717
PG19 -16352.959782 -20495.842284   5010.682628    350.805650
PG20 -18950.993140  -3528.567073 -18153.947077    419.928731
PG21  15282.678295  -5009.720162  21523.264141    151.489590
PG22  18138.494555  19370.993578   2841.203030    520.018296
PG23  -9161.497440  17294.110433  17882.027276     49.037026
PG24 -14474.422182  11038.465760  18831.954839   -274.114342
PG25 -15815.073267  16848.233469 -13167.728407    459.203000
PG26  15112.617891   9129.938863 -20050.577052    234.789787
PG27  22901.191536  12348.354203   6074.156786    -12.841930
PG28   6276.215067  22720.490308 -12264.503873     80.000080
PG29  -6372.353721  14019.942568 -21679.058226   -606.722126
PG30   -784.695200 -25734.074349   6061.344328   -500.445243
PG31  11893.899916  13493.096521 -19580.425494   -220.969845
PG32  14480.887288  20015.434161  10200.960902   -531.148643
PJ02 -36291.014143  18199.844108  -6827.439003     -1.937426
PJ03 -19720.783781  28113.249536 -19773.622193     -0.491190
PJ04 -26380.725536  29285.679260  21246.740248     97.880862
PR01   2152.401275  11579.978338  22623.543663     62.442050
PR02  19220.477113  11264.342721  12526.382861    -22.580672
PR03  24756.690072   4218.110716  -4598.299669     82.367027
PR04  16476.048665  -4650.203310 -18888.523556    196.701117
PR05   -609.687135 -11182.825575 -22906.523761    116.543983
PR07 -24593.737180  -3736.617326   5565.570915     61.305620
PR08 -16250.822573   5009.559891  19056.403555    -71.890358
PR09  -6986.305519  -9096.339327  22802.815500    133.953952
PR11 -18676.380925  17011.640441   3616.648343   -118.071888
PR12  -8545.906642  18936.320076 -14761.119962     29.629916
PR13   4970.397363  10596.034521 -22671.491969    -37.622548
PR14  17486.930685  -5844.363420 -17597.545753     25.029854
PR15  18493.046847 -17418.650229  -2219.338254     87.427442
PR16   8664.763925 -19005.108160  14631.212772     17.200682
PR17  11807.260716   5395.628612  21951.008239      4.347872
PR18   6849.243006 -12023.192380  21428.012303     94.193224
PR19   -146.197175 -22946.115021  11147.954067   -241.665073
PR20  -9268.389933 -21734.893715  -9565.324692    -97.443202
PR21 -11548.060622  -4309.451119 -22342.421809    -26.544263
PR22  -7166.493150  12862.504719 -20809.048046    104.280854
PR24  10429.064495  20985.913759  10059.234468    -18.542634
PR25 -11857.504883  -6003.171862 -21775.752577     45.036703
EOF
